{"type":"FeatureCollection","heatnet_metadata":{"mode":"demo","competition_ready":false,"reconstruction_known":true,"assumptions":[],"limitations":["Эскизный MVP; требуется инженерная проверка.","2D, без оптимизации специальных проходов через дороги и коммуникации.","Поиск на сетке с консервативными отступами; не гарантирует глобальный оптимум."]},"features":[{"type":"Feature","geometry":{"type":"Point","coordinates":[37.63837822849214,55.697506597649344]},"properties":{"id":"v1-tie-net-127-1-chamber","object_type":"heat_chamber","variant_id":"1","diameter":400,"cost":5000000.0}},{"type":"Feature","geometry":{"type":"Point","coordinates":[37.636628927170676,55.69507507378959]},"properties":{"id":"v1-tie-net-132-0-chamber","object_type":"heat_chamber","variant_id":"1","diameter":400,"cost":5000000.0}},{"type":"Feature","geometry":{"type":"Point","coordinates":[37.63998735521589,55.69952818308639]},"properties":{"id":"v1-tie-net-122-1-chamber","object_type":"heat_chamber","variant_id":"1","diameter":400,"cost":5000000.0}},{"type":"Feature","geometry":{"type":"Point","coordinates":[37.63797104131119,55.696962202857826]},"properties":{"id":"v1-tie-net-129-3-chamber","object_type":"heat_chamber","variant_id":"1","diameter":400,"cost":5000000.0}},{"type":"Feature","geometry":{"type":"LineString","coordinates":[[37.63837822849214,55.697506597649344],[37.63822088441207,55.69759133046604]]},"properties":{"id":"v1-edge-0-1","object_type":"heat_network","variant_id":"1","start_node_id":"v1-tie-net-127-1-chamber","end_node_id":"v1-grid-6695","flow_tph":234.60999999999999,"diameter":250,"length":13.66623548438548,"laying_method":"base","depth_start":null,"depth_end":null,"cost":1849355.9844534963}},{"type":"Feature","geometry":{"type":"Point","coordinates":[37.63822088441207,55.69759133046604]},"properties":{"id":"v1-grid-6695","object_type":"heat_chamber","variant_id":"1","diameter":250,"cost":5000000.0}},{"type":"Feature","geometry":{"type":"LineString","coordinates":[[37.63822088441207,55.69759133046604],[37.63741936380074,55.69776216480508]]},"properties":{"id":"v1-edge-1-1","object_type":"heat_network","variant_id":"1","start_node_id":"v1-grid-6695","end_node_id":"v1-grid-6872","flow_tph":206.79,"diameter":250,"length":53.85164807134504,"laying_method":"base","depth_start":null,"depth_end":null,"cost":7287366.571958625}},{"type":"Feature","geometry":{"type":"Point","coordinates":[37.63741936380074,55.69776216480508]},"properties":{"id":"v1-grid-6872","object_type":"heat_chamber","variant_id":"1","diameter":250,"cost":5000000.0}},{"type":"Feature","geometry":{"type":"LineString","coordinates":[[37.63741936380074,55.69776216480508],[37.63753466802839,55.69902152817822],[37.63449060950701,55.699616755812286]]},"properties":{"id":"v1-edge-2-1","object_type":"heat_network","variant_id":"1","start_node_id":"v1-grid-6872","end_node_id":"v1-grid-8765","flow_tph":43.63,"diameter":150,"length":342.8412557893479,"laying_method":"base","depth_start":null,"depth_end":null,"cost":3.617215237456673E7}},{"type":"Feature","geometry":{"type":"Point","coordinates":[37.63449060950701,55.699616755812286]},"properties":{"id":"v1-grid-8765","object_type":"heat_chamber","variant_id":"1","diameter":150,"cost":3000000.0}},{"type":"Feature","geometry":{"type":"LineString","coordinates":[[37.63449060950701,55.699616755812286],[37.6344054041544,55.69948106445311]]},"properties":{"id":"v1-edge-3-1","object_type":"heat_network","variant_id":"1","start_node_id":"v1-grid-8765","end_node_id":1,"flow_tph":24.87,"diameter":125,"length":16.02420855156037,"laying_method":"base","depth_start":null,"depth_end":null,"cost":1558754.886853035}},{"type":"Feature","geometry":{"type":"LineString","coordinates":[[37.63449060950701,55.699616755812286],[37.634487477288964,55.69970658413839],[37.6345829261805,55.6998544638392]]},"properties":{"id":"v1-edge-4-1","object_type":"heat_network","variant_id":"1","start_node_id":"v1-grid-8765","end_node_id":2,"flow_tph":18.76,"diameter":100,"length":27.518639897217927,"laying_method":"base","depth_start":null,"depth_end":null,"cost":2469742.8934955145}},{"type":"Feature","geometry":{"type":"LineString","coordinates":[[37.63741936380074,55.69776216480508],[37.637260309105535,55.6977603996572]]},"properties":{"id":"v1-edge-5-1","object_type":"heat_network","variant_id":"1","start_node_id":"v1-grid-6872","end_node_id":"v1-grid-6871","flow_tph":163.16,"diameter":250,"length":10.0,"laying_method":"base","depth_start":null,"depth_end":null,"cost":1353230.0}},{"type":"Feature","geometry":{"type":"Point","coordinates":[37.637260309105535,55.6977603996572]},"properties":{"id":"v1-grid-6871","object_type":"heat_chamber","variant_id":"1","diameter":250,"cost":5000000.0}},{"type":"Feature","geometry":{"type":"LineString","coordinates":[[37.637260309105535,55.6977603996572],[37.63613128555412,55.69819717991842],[37.633408522378225,55.69870608570483]]},"properties":{"id":"v1-edge-6-1","object_type":"heat_network","variant_id":"1","start_node_id":"v1-grid-6871","end_node_id":"v1-grid-7848","flow_tph":55.99,"diameter":150,"length":266.30081644362576,"laying_method":"base","depth_start":null,"depth_end":null,"cost":2.8096600240517624E7}},{"type":"Feature","geometry":{"type":"Point","coordinates":[37.633408522378225,55.69870608570483]},"properties":{"id":"v1-grid-7848","object_type":"heat_chamber","variant_id":"1","diameter":150,"cost":3000000.0}},{"type":"Feature","geometry":{"type":"LineString","coordinates":[[37.633408522378225,55.69870608570483],[37.63227001725752,55.69941231486512],[37.632244918467194,55.7001309407928],[37.63208585449553,55.70012916889408],[37.632012226474316,55.70004826125506]]},"properties":{"id":"v1-edge-7-1","object_type":"heat_network","variant_id":"1","start_node_id":"v1-grid-7848","end_node_id":6,"flow_tph":15.99,"diameter":100,"length":206.42622882993803,"laying_method":"base","depth_start":null,"depth_end":null,"cost":1.852634118502928E7}},{"type":"Feature","geometry":{"type":"LineString","coordinates":[[37.633408522378225,55.69870608570483],[37.6334116569533,55.69861625740437],[37.63313932211122,55.69865306825248]]},"properties":{"id":"v1-edge-8-1","object_type":"heat_network","variant_id":"1","start_node_id":"v1-grid-7848","end_node_id":12,"flow_tph":40.0,"diameter":125,"length":27.601884445420243,"laying_method":"base","depth_start":null,"depth_end":null,"cost":2684973.309428254}},{"type":"Feature","geometry":{"type":"LineString","coordinates":[[37.637260309105535,55.6977603996572],[37.63632787566296,55.69712100545444],[37.63600977164127,55.6971174721521]]},"properties":{"id":"v1-edge-9-1","object_type":"heat_network","variant_id":"1","start_node_id":"v1-grid-6871","end_node_id":"v1-grid-6226","flow_tph":107.17,"diameter":200,"length":112.19544457292888,"laying_method":"base","depth_start":null,"depth_end":null,"cost":1.3494307096009022E7}},{"type":"Feature","geometry":{"type":"Point","coordinates":[37.63600977164127,55.6971174721521]},"properties":{"id":"v1-grid-6226","object_type":"heat_chamber","variant_id":"1","diameter":200,"cost":3000000.0}},{"type":"Feature","geometry":{"type":"LineString","coordinates":[[37.63600977164127,55.6971174721521],[37.63456577742538,55.697460875553915]]},"properties":{"id":"v1-edge-10-1","object_type":"heat_network","variant_id":"1","start_node_id":"v1-grid-6226","end_node_id":"v1-grid-6581","flow_tph":74.03,"diameter":200,"length":98.48857801796105,"laying_method":"base","depth_start":null,"depth_end":null,"cost":1.1845713721110266E7}},{"type":"Feature","geometry":{"type":"Point","coordinates":[37.63456577742538,55.697460875553915]},"properties":{"id":"v1-grid-6581","object_type":"heat_chamber","variant_id":"1","diameter":200,"cost":3000000.0}},{"type":"Feature","geometry":{"type":"LineString","coordinates":[[37.63456577742538,55.697460875553915],[37.6344462678961,55.6972523917077]]},"properties":{"id":"v1-edge-11-1","object_type":"heat_network","variant_id":"1","start_node_id":"v1-grid-6581","end_node_id":9,"flow_tph":34.53,"diameter":125,"length":24.390383329466612,"laying_method":"base","depth_start":null,"depth_end":null,"cost":2372574.5383738647}},{"type":"Feature","geometry":{"type":"LineString","coordinates":[[37.63456577742538,55.697460875553915],[37.63376737757165,55.69754185763854]]},"properties":{"id":"v1-edge-12-1","object_type":"heat_network","variant_id":"1","start_node_id":"v1-grid-6581","end_node_id":"v1-grid-6667","flow_tph":39.5,"diameter":125,"length":50.99019513592785,"laying_method":"base","depth_start":null,"depth_end":null,"cost":4960071.231847381}},{"type":"Feature","geometry":{"type":"Point","coordinates":[37.63376737757165,55.69754185763854]},"properties":{"id":"v1-grid-6667","object_type":"heat_chamber","variant_id":"1","diameter":125,"cost":3000000.0}},{"type":"Feature","geometry":{"type":"LineString","coordinates":[[37.63376737757165,55.69754185763854],[37.6339010562985,55.697722607233096]]},"properties":{"id":"v1-edge-13-1","object_type":"heat_network","variant_id":"1","start_node_id":"v1-grid-6667","end_node_id":13,"flow_tph":19.77,"diameter":100,"length":21.80217057851661,"laying_method":"base","depth_start":null,"depth_end":null,"cost":1956701.2050807087}},{"type":"Feature","geometry":{"type":"LineString","coordinates":[[37.63376737757165,55.69754185763854],[37.6337524411436,55.6974723292097]]},"properties":{"id":"v1-edge-14-1","object_type":"heat_network","variant_id":"1","start_node_id":"v1-grid-6667","end_node_id":14,"flow_tph":19.73,"diameter":100,"length":7.795391592190383,"laying_method":"base","depth_start":null,"depth_end":null,"cost":699620.8046159025}},{"type":"Feature","geometry":{"type":"LineString","coordinates":[[37.63600977164127,55.6971174721521],[37.636006643199956,55.6972073005718],[37.6360932402107,55.697296569490895]]},"properties":{"id":"v1-edge-15-1","object_type":"heat_network","variant_id":"1","start_node_id":"v1-grid-6226","end_node_id":10,"flow_tph":33.14,"diameter":125,"length":21.329240081099496,"laying_method":"base","depth_start":null,"depth_end":null,"cost":2074801.8288889534}},{"type":"Feature","geometry":{"type":"LineString","coordinates":[[37.63822088441207,55.69759133046604],[37.638211514080254,55.697860815947415],[37.6382803042186,55.69795678628921]]},"properties":{"id":"v1-edge-16-1","object_type":"heat_network","variant_id":"1","start_node_id":"v1-grid-6695","end_node_id":7,"flow_tph":27.82,"diameter":125,"length":41.52370640799336,"laying_method":"base","depth_start":null,"depth_end":null,"cost":4039218.5408375543}},{"type":"Feature","geometry":{"type":"LineString","coordinates":[[37.636628927170676,55.69507507378959],[37.63608172090811,55.69505141810213],[37.63206798927448,55.696085125281215],[37.632042889904014,55.69680375154026],[37.63188383945628,55.69680197944913],[37.63203443949898,55.69704568983144]]},"properties":{"id":"v1-edge-17-1","object_type":"heat_network","variant_id":"1","start_node_id":"v1-tie-net-132-0-chamber","end_node_id":15,"flow_tph":31.89,"diameter":125,"length":430.53843100197844,"laying_method":"base","depth_start":null,"depth_end":null,"cost":4.188062587571745E7}},{"type":"Feature","geometry":{"type":"Point","coordinates":[37.6401068715863,55.699498887063434]},"properties":{"id":"v1-special-node-18-1","object_type":"technical_node","variant_id":"1"}},{"type":"Feature","geometry":{"type":"LineString","coordinates":[[37.63998735521589,55.69952818308639],[37.6401068715863,55.699498887063434]]},"properties":{"id":"v1-edge-18-1","object_type":"heat_network","variant_id":"1","start_node_id":"v1-tie-net-122-1-chamber","end_node_id":"v1-special-node-18-1","flow_tph":76.27,"diameter":200,"length":8.189505561437088,"laying_method":"base","depth_start":null,"depth_end":null,"cost":984992.7814018457}},{"type":"Feature","geometry":{"type":"Point","coordinates":[37.64016524689972,55.69948457796499]},"properties":{"id":"v1-special-node-18-2","object_type":"technical_node","variant_id":"1"}},{"type":"Feature","geometry":{"type":"LineString","coordinates":[[37.6401068715863,55.699498887063434],[37.64016524689972,55.69948457796499]]},"properties":{"id":"v1-edge-18-2","object_type":"heat_network","variant_id":"1","start_node_id":"v1-special-node-18-1","end_node_id":"v1-special-node-18-2","flow_tph":76.27,"diameter":200,"length":3.9999999998576055,"laying_method":"special","depth_start":null,"depth_end":null,"cost":505154.99998201715}},{"type":"Feature","geometry":{"type":"LineString","coordinates":[[37.64016524689972,55.69948457796499],[37.64150805313091,55.69915541545051],[37.641536096972885,55.69834695803388],[37.64076446632709,55.6984073918225]]},"properties":{"id":"v1-edge-18-3","object_type":"heat_network","variant_id":"1","start_node_id":"v1-special-node-18-2","end_node_id":16,"flow_tph":76.27,"diameter":200,"length":230.9802968241789,"laying_method":"base","depth_start":null,"depth_end":null,"cost":2.778115520052812E7}},{"type":"Feature","geometry":{"type":"LineString","coordinates":[[37.63797104131119,55.696962202857826],[37.63936859174264,55.69661555944596],[37.639538146115,55.6968518286392]]},"properties":{"id":"v1-edge-19-1","object_type":"heat_network","variant_id":"1","start_node_id":"v1-tie-net-129-3-chamber","end_node_id":17,"flow_tph":20.63,"diameter":100,"length":124.32507239307549,"laying_method":"base","depth_start":null,"depth_end":null,"cost":1.1157926597133739E7}},{"type":"Feature","geometry":null,"properties":{"id":"v1-summary","object_type":"variant_summary","variant_id":"1","rank":1,"construction_cost":2.737513818678294E8,"chamber_construction_cost":5.0E7,"existing_chamber_tie_in_count":0,"existing_chamber_tie_in_cost":0.0,"unconnected_penalty":5.6266E8,"calculated_cost":8.364113818678293E8,"new_network_length":2140.7793330094523,"score":29.841856691327575,"unconnected_oks_ids":[3,4,5,8,11]}}]}